{
  "type": "FeatureCollection",
  "name": "Dikrong_Villages",
  "crs": { "type": "name", "properties": { "name": "urn:ogc:def:crs:OGC:1.3:CRS84" } },
  "features": [
    {
      "type": "Feature",
      "properties": {
        "id": "VIL-01",
        "name": "Doimukh Township",
        "district": "Papum Pare",
        "state": "Arunachal Pradesh",
        "total_population": 5420,
        "households": 1050,
        "vulnerable_elderly": 430,
        "vulnerable_children": 620,
        "elevation_m": 142.0,
        "flood_prone_zone": "High - River Confluence",
        "primary_shelter_id": "SHELTER-01",
        "contact_person": "Gaon Burah T. Tara",
        "contact_phone": "+91-94360-11201"
      },
      "geometry": { "type": "Point", "coordinates": [93.748, 27.145] }
    },
    {
      "type": "Feature",
      "properties": {
        "id": "VIL-02",
        "name": "Nirjuli Riverside",
        "district": "Papum Pare",
        "state": "Arunachal Pradesh",
        "total_population": 11800,
        "households": 2400,
        "vulnerable_elderly": 810,
        "vulnerable_children": 1450,
        "elevation_m": 136.0,
        "flood_prone_zone": "Critical - Narrow Valley Channel",
        "primary_shelter_id": "SHELTER-02",
        "contact_person": "Town Magistrate K. Ringu",
        "contact_phone": "+91-94360-11202"
      },
      "geometry": { "type": "Point", "coordinates": [93.742, 27.132] }
    },
    {
      "type": "Feature",
      "properties": {
        "id": "VIL-03",
        "name": "Karsingsa Settlement",
        "district": "Papum Pare",
        "state": "Arunachal Pradesh",
        "total_population": 2450,
        "households": 480,
        "vulnerable_elderly": 190,
        "vulnerable_children": 320,
        "elevation_m": 158.0,
        "flood_prone_zone": "Moderate - Hill Torrent & Landslip",
        "primary_shelter_id": "SHELTER-02",
        "contact_person": "Gram Panchayat Head M. Ete",
        "contact_phone": "+91-94360-11203"
      },
      "geometry": { "type": "Point", "coordinates": [93.785, 27.122] }
    },
    {
      "type": "Feature",
      "properties": {
        "id": "VIL-04",
        "name": "Banderdewa Border Sector",
        "district": "Papum Pare / Lakhimpur",
        "state": "Arunachal - Assam Border",
        "total_population": 4850,
        "households": 920,
        "vulnerable_elderly": 390,
        "vulnerable_children": 580,
        "elevation_m": 118.0,
        "flood_prone_zone": "High - Foothill Bottleneck",
        "primary_shelter_id": "SHELTER-03",
        "contact_person": "Border Circle Officer R. Gogoi",
        "contact_phone": "+91-94360-11204"
      },
      "geometry": { "type": "Point", "coordinates": [93.825, 27.110] }
    },
    {
      "type": "Feature",
      "properties": {
        "id": "VIL-05",
        "name": "Harmuti Bazar & Railway Colony",
        "district": "Lakhimpur",
        "state": "Assam",
        "total_population": 6600,
        "households": 1300,
        "vulnerable_elderly": 540,
        "vulnerable_children": 840,
        "elevation_m": 98.0,
        "flood_prone_zone": "Critical - Low Alluvial Fan",
        "primary_shelter_id": "SHELTER-04",
        "contact_person": "Circle Officer P. Saikia",
        "contact_phone": "+91-94360-11205"
      },
      "geometry": { "type": "Point", "coordinates": [93.885, 27.082] }
    },
    {
      "type": "Feature",
      "properties": {
        "id": "VIL-06",
        "name": "Pichola Embankment Area",
        "district": "Lakhimpur",
        "state": "Assam",
        "total_population": 3150,
        "households": 610,
        "vulnerable_elderly": 280,
        "vulnerable_children": 410,
        "elevation_m": 88.0,
        "flood_prone_zone": "Critical - Chronic Embankment Breach Zone",
        "primary_shelter_id": "SHELTER-04",
        "contact_person": "Gaon Pradhan D. Bora",
        "contact_phone": "+91-94360-11206"
      },
      "geometry": { "type": "Point", "coordinates": [93.902, 27.051] }
    },
    {
      "type": "Feature",
      "properties": {
        "id": "VIL-07",
        "name": "Merbil Lowlands",
        "district": "Lakhimpur",
        "state": "Assam",
        "total_population": 2720,
        "households": 530,
        "vulnerable_elderly": 220,
        "vulnerable_children": 350,
        "elevation_m": 82.0,
        "flood_prone_zone": "High - Wetland Inundation",
        "primary_shelter_id": "SHELTER-05",
        "contact_person": "Panchayat Secretary B. Dutta",
        "contact_phone": "+91-94360-11207"
      },
      "geometry": { "type": "Point", "coordinates": [93.935, 27.021] }
    },
    {
      "type": "Feature",
      "properties": {
        "id": "VIL-08",
        "name": "Bihpuria Rural & Char",
        "district": "Lakhimpur",
        "state": "Assam",
        "total_population": 9100,
        "households": 1820,
        "vulnerable_elderly": 720,
        "vulnerable_children": 1150,
        "elevation_m": 79.0,
        "flood_prone_zone": "Critical - Flat Basin Deposition",
        "primary_shelter_id": "SHELTER-05",
        "contact_person": "Block Dev Officer N. Kalita",
        "contact_phone": "+91-94360-11208"
      },
      "geometry": { "type": "Point", "coordinates": [93.918, 26.985] }
    },
    {
      "type": "Feature",
      "properties": {
        "id": "VIL-09",
        "name": "Gumto Sub-basin",
        "district": "Papum Pare",
        "state": "Arunachal Pradesh",
        "total_population": 1950,
        "households": 380,
        "vulnerable_elderly": 160,
        "vulnerable_children": 250,
        "elevation_m": 145.0,
        "flood_prone_zone": "Moderate - Hill Valley",
        "primary_shelter_id": "SHELTER-01",
        "contact_person": "Village Head H. Techi",
        "contact_phone": "+91-94360-11209"
      },
      "geometry": { "type": "Point", "coordinates": [93.790, 27.160] }
    },
    {
      "type": "Feature",
      "properties": {
        "id": "VIL-10",
        "name": "Sagalee Upland (Early Warning Node)",
        "district": "Papum Pare",
        "state": "Arunachal Pradesh",
        "total_population": 2890,
        "households": 560,
        "vulnerable_elderly": 210,
        "vulnerable_children": 340,
        "elevation_m": 620.0,
        "flood_prone_zone": "Steep Valley Torrents & Flash Gorges",
        "primary_shelter_id": "SHELTER-06",
        "contact_person": "ADC Sagalee S. Nabam",
        "contact_phone": "+91-94360-11210"
      },
      "geometry": { "type": "Point", "coordinates": [93.660, 27.240] }
    }
  ]
}
