{
  "type": "FeatureCollection",
  "name": "Dikrong_Catchment_Boundary",
  "crs": { "type": "name", "properties": { "name": "urn:ogc:def:crs:OGC:1.3:CRS84" } },
  "features": [
    {
      "type": "Feature",
      "properties": {
        "id": "CATCH-DIKRONG-01",
        "name": "Dikrong River Catchment",
        "state": "Arunachal Pradesh - Assam",
        "districts": ["Papum Pare", "Lakhimpur"],
        "area_sq_km": 1542.8,
        "max_elevation_m": 2450,
        "min_elevation_m": 72,
        "mean_slope_degrees": 28.4,
        "soil_type": "Humic Mountain Gleysols & Alluvial Sandy Loam",
        "time_of_concentration_hours": 3.2,
        "critical_rainfall_threshold_mm_per_hr": 35.0,
        "warning_lead_time_min": 180
      },
      "geometry": {
        "type": "Polygon",
        "coordinates": [
          [
            [93.550, 27.350],
            [93.680, 27.380],
            [93.820, 27.330],
            [93.920, 27.220],
            [93.980, 27.120],
            [94.020, 27.020],
            [93.970, 26.940],
            [93.880, 26.920],
            [93.800, 26.980],
            [93.720, 27.080],
            [93.600, 27.180],
            [93.520, 27.270],
            [93.550, 27.350]
          ]
        ]
      }
    }
  ]
}
